{
  "type": "FeatureCollection",
  "features": [
    {
      "type": "Feature",
      "properties": {
        "norad_id": 30182,
        "name": "FENGYUN 1C DEB",
        "group": "fengyun-1c-debris",
        "lat": -8.853422224120289,
        "lon": -152.00288768222663,
        "alt_km": 953.858436915275,
        "timestamp": "2025-12-04T07:39:36.410226+00:00",
        "meta_object_name": "FENGYUN 1C DEB",
        "meta_object_id": "1999-025UP",
        "meta_epoch": "2025-12-03T10:12:11.824704",
        "meta_mean_motion": 13.96449014,
        "meta_eccentricity": 0.00754249,
        "meta_inclination": 99.0669,
        "meta_ra_of_asc_node": 28.5417,
        "meta_arg_of_pericenter": 48.2011,
        "meta_mean_anomaly": 328.0719,
        "meta_ephemeris_type": 0,
        "meta_classification_type": "U",
        "meta_norad_cat_id": 30182,
        "meta_element_set_no": 999,
        "meta_rev_at_epoch": 96178,
        "meta_bstar": 0.00028637071,
        "meta_mean_motion_dot": 3.61e-06,
        "meta_mean_motion_ddot": 0,
        "tle_line1": "1 30182U 99025UP  25337.42513686  .00000361  00000+0  28637-3 0  9992",
        "tle_line2": "2 30182  99.0669  28.5417 0075424  48.2011 328.0719 13.96449014961782"
      },
      "geometry": {
        "type": "Point",
        "coordinates": [
          -152.00288768222663,
          -8.853422224120289
        ]
      }
    },
    {
      "type": "Feature",
      "properties": {
        "norad_id": 30183,
        "name": "FENGYUN 1C DEB",
        "group": "fengyun-1c-debris",
        "lat": -40.086331515256575,
        "lon": -166.76570298409584,
        "alt_km": 846.7633914801208,
        "timestamp": "2025-12-04T07:39:36.410235+00:00",
        "meta_object_name": "FENGYUN 1C DEB",
        "meta_object_id": "1999-025UQ",
        "meta_epoch": "2025-12-03T21:16:22.210752",
        "meta_mean_motion": 14.12634917,
        "meta_eccentricity": 0.00256605,
        "meta_inclination": 98.7896,
        "meta_ra_of_asc_node": 20.2922,
        "meta_arg_of_pericenter": 279.0797,
        "meta_mean_anomaly": 261.9481,
        "meta_ephemeris_type": 0,
        "meta_classification_type": "U",
        "meta_norad_cat_id": 30183,
        "meta_element_set_no": 999,
        "meta_rev_at_epoch": 97018,
        "meta_bstar": 0.00090183535,
        "meta_mean_motion_dot": 1.632e-05,
        "meta_mean_motion_ddot": 0,
        "tle_line1": "1 30183U 99025UQ  25337.88636818  .00001632  00000+0  90184-3 0  9994",
        "tle_line2": "2 30183  98.7896  20.2922 0025660 279.0797 261.9481 14.12634917970185"
      },
      "geometry": {
        "type": "Point",
        "coordinates": [
          -166.76570298409584,
          -40.086331515256575
        ]
      }
    },
    {
      "type": "Feature",
      "properties": {
        "norad_id": 30191,
        "name": "FENGYUN 1C DEB",
        "group": "fengyun-1c-debris",
        "lat": -29.70905850739684,
        "lon": 53.81018331628732,
        "alt_km": 589.451423422116,
        "timestamp": "2025-12-04T07:39:36.410244+00:00",
        "meta_object_name": "FENGYUN 1C DEB",
        "meta_object_id": "1999-025UY",
        "meta_epoch": "2025-12-03T17:42:34.060608",
        "meta_mean_motion": 14.77741819,
        "meta_eccentricity": 0.00975042,
        "meta_inclination": 98.7776,
        "meta_ra_of_asc_node": 48.1195,
        "meta_arg_of_pericenter": 292.1422,
        "meta_mean_anomaly": 186.6601,
        "meta_ephemeris_type": 0,
        "meta_classification_type": "U",
        "meta_norad_cat_id": 30191,
        "meta_element_set_no": 999,
        "meta_rev_at_epoch": 142,
        "meta_bstar": 0.0016398746,
        "meta_mean_motion_dot": 0.00012682,
        "meta_mean_motion_ddot": 0,
        "tle_line1": "1 30191U 99025UY  25337.73789422  .00012682  00000+0  16399-2 0  9999",
        "tle_line2": "2 30191  98.7776  48.1195 0097504 292.1422 186.6601 14.77741819  1429"
      },
      "geometry": {
        "type": "Point",
        "coordinates": [
          53.81018331628732,
          -29.70905850739684
        ]
      }
    },
    {
      "type": "Feature",
      "properties": {
        "norad_id": 30193,
        "name": "FENGYUN 1C DEB",
        "group": "fengyun-1c-debris",
        "lat": -17.24937879740176,
        "lon": 63.470110410786525,
        "alt_km": 674.3422812412882,
        "timestamp": "2025-12-04T07:39:36.410254+00:00",
        "meta_object_name": "FENGYUN 1C DEB",
        "meta_object_id": "1999-025VA",
        "meta_epoch": "2025-12-03T17:47:21.052032",
        "meta_mean_motion": 14.49040114,
        "meta_eccentricity": 0.01067503,
        "meta_inclination": 98.7559,
        "meta_ra_of_asc_node": 245.6135,
        "meta_arg_of_pericenter": 160.133,
        "meta_mean_anomaly": 263.252,
        "meta_ephemeris_type": 0,
        "meta_classification_type": "U",
        "meta_norad_cat_id": 30193,
        "meta_element_set_no": 999,
        "meta_rev_at_epoch": 99036,
        "meta_bstar": 0.0010358665,
        "meta_mean_motion_dot": 4.177e-05,
        "meta_mean_motion_ddot": 0,
        "tle_line1": "1 30193U 99025VA  25337.74121588  .00004177  00000+0  10359-2 0  9995",
        "tle_line2": "2 30193  98.7559 245.6135 0106750 160.1330 263.2520 14.49040114990365"
      },
      "geometry": {
        "type": "Point",
        "coordinates": [
          63.470110410786525,
          -17.24937879740176
        ]
      }
    },
    {
      "type": "Feature",
      "properties": {
        "norad_id": 30196,
        "name": "FENGYUN 1C DEB",
        "group": "fengyun-1c-debris",
        "lat": -32.91182301514546,
        "lon": 76.53650948894678,
        "alt_km": 843.1900801595484,
        "timestamp": "2025-12-04T07:39:36.410262+00:00",
        "meta_object_name": "FENGYUN 1C DEB",
        "meta_object_id": "1999-025VD",
        "meta_epoch": "2025-12-03T05:00:35.218080",
        "meta_mean_motion": 14.25842743,
        "meta_eccentricity": 0.00870639,
        "meta_inclination": 98.6406,
        "meta_ra_of_asc_node": 69.7939,
        "meta_arg_of_pericenter": 90.6041,
        "meta_mean_anomaly": 300.3805,
        "meta_ephemeris_type": 0,
        "meta_classification_type": "U",
        "meta_norad_cat_id": 30196,
        "meta_element_set_no": 999,
        "meta_rev_at_epoch": 98229,
        "meta_bstar": 8.1433967e-05,
        "meta_mean_motion_dot": 1.59e-06,
        "meta_mean_motion_ddot": 0,
        "tle_line1": "1 30196U 99025VD  25337.20874095  .00000159  00000+0  81434-4 0  9997",
        "tle_line2": "2 30196  98.6406  69.7939 0087063  90.6041 300.3805 14.25842743982290"
      },
      "geometry": {
        "type": "Point",
        "coordinates": [
          76.53650948894678,
          -32.91182301514546
        ]
      }
    },
    {
      "type": "Feature",
      "properties": {
        "norad_id": 30197,
        "name": "FENGYUN 1C DEB",
        "group": "fengyun-1c-debris",
        "lat": -8.976577722869026,
        "lon": 81.92634665450743,
        "alt_km": 746.3298701106669,
        "timestamp": "2025-12-04T07:39:36.410271+00:00",
        "meta_object_name": "FENGYUN 1C DEB",
        "meta_object_id": "1999-025VE",
        "meta_epoch": "2025-12-03T19:23:07.622304",
        "meta_mean_motion": 14.37120197,
        "meta_eccentricity": 0.00569511,
        "meta_inclination": 98.9376,
        "meta_ra_of_asc_node": 262.8198,
        "meta_arg_of_pericenter": 241.5583,
        "meta_mean_anomaly": 183.3929,
        "meta_ephemeris_type": 0,
        "meta_classification_type": "U",
        "meta_norad_cat_id": 30197,
        "meta_element_set_no": 999,
        "meta_rev_at_epoch": 98358,
        "meta_bstar": 0.0013391997,
        "meta_mean_motion_dot": 4.008e-05,
        "meta_mean_motion_ddot": 0,
        "tle_line1": "1 30197U 99025VE  25337.80772711  .00004008  00000+0  13392-2 0  9999",
        "tle_line2": "2 30197  98.9376 262.8198 0056951 241.5583 183.3929 14.37120197983587"
      },
      "geometry": {
        "type": "Point",
        "coordinates": [
          81.92634665450743,
          -8.976577722869026
        ]
      }
    },
    {
      "type": "Feature",
      "properties": {
        "norad_id": 30198,
        "name": "FENGYUN 1C DEB",
        "group": "fengyun-1c-debris",
        "lat": 72.20486732658608,
        "lon": -43.0851201922236,
        "alt_km": 753.6219668566628,
        "timestamp": "2025-12-04T07:39:36.410280+00:00",
        "meta_object_name": "FENGYUN 1C DEB",
        "meta_object_id": "1999-025VF",
        "meta_epoch": "2025-12-03T15:10:38.180640",
        "meta_mean_motion": 14.50095071,
        "meta_eccentricity": 0.01071439,
        "meta_inclination": 98.4479,
        "meta_ra_of_asc_node": 108.6435,
        "meta_arg_of_pericenter": 225.9603,
        "meta_mean_anomaly": 257.6322,
        "meta_ephemeris_type": 0,
        "meta_classification_type": "U",
        "meta_norad_cat_id": 30198,
        "meta_element_set_no": 999,
        "meta_rev_at_epoch": 98375,
        "meta_bstar": 0.0030626683,
        "meta_mean_motion_dot": 0.00012764,
        "meta_mean_motion_ddot": 0,
        "tle_line1": "1 30198U 99025VF  25337.63238635  .00012764  00000+0  30627-2 0  9991",
        "tle_line2": "2 30198  98.4479 108.6435 0107143 225.9603 257.6322 14.50095071983755"
      },
      "geometry": {
        "type": "Point",
        "coordinates": [
          -43.0851201922236,
          72.20486732658608
        ]
      }
    }
  ]
}